[{"OBJECT_NAME":"GHGSAT-C4","OBJECT_ID":"2022-057Q","EPOCH":"2026-03-09T22:58:28.655904","MEAN_MOTION":15.3293316,"ECCENTRICITY":0.0007552,"INCLINATION":97.6357,"RA_OF_ASC_NODE":210.0193,"ARG_OF_PERICENTER":100.0033,"MEAN_ANOMALY":260.2061,"EPHEMERIS_TYPE":0,"CLASSIFICATION_TYPE":"U","NORAD_CAT_ID":52746,"ELEMENT_SET_NO":999,"REV_AT_EPOCH":21033,"BSTAR":0.00030289005,"MEAN_MOTION_DOT":9.562e-5,"MEAN_MOTION_DDOT":0},{"OBJECT_NAME":"STARLINK-35036","OBJECT_ID":"2025-192C","EPOCH":"2026-03-09T22:00:01.999584","MEAN_MOTION":15.30157604,"ECCENTRICITY":0.0001095,"INCLINATION":53.1584,"RA_OF_ASC_NODE":231.3752,"ARG_OF_PERICENTER":74.8228,"MEAN_ANOMALY":79.2617,"EPHEMERIS_TYPE":0,"CLASSIFICATION_TYPE":"U","NORAD_CAT_ID":65406,"ELEMENT_SET_NO":999,"REV_AT_EPOCH":589,"BSTAR":0.0022319849,"MEAN_MOTION_DOT":0.0006625,"MEAN_MOTION_DDOT":0}]
